GLOBALSTAR M063         
1 26081U 00008A   25066.94955179 -.00000068  00000+0  21131-3 0  9998
2 26081  51.9985  18.1939 0004941 117.4108 286.8450 11.86166725145564
GLOBALSTAR M062         
1 26082U 00008B   25067.42372823 -.00000078  00000+0  14225-3 0  9999
2 26082  51.9868  32.0942 0006662 257.5205 253.3578 12.43459836146585
GLOBALSTAR M060         
1 26083U 00008C   25066.93682310 -.00000154  00000+0 -62504-3 0  9999
2 26083  52.0049 339.2136 0002806 285.4346 154.8213 12.17656905140030
GLOBALSTAR M064         
1 26084U 00008D   25066.55119923 -.00000058  00000+0  35630-3 0  9995
2 26084  52.0018 119.2707 0001661 204.3401 155.7353 11.88530407155123
GLOBALSTAR M065         
1 31571U 07020A   25066.79345831  .00000054  00000+0  88162-3 0  9991
2 31571  51.9888 174.8782 0010861  85.1810  82.9710 12.61997474820911
GLOBALSTAR M069         
1 31573U 07020C   25067.56161890 -.00000073  00000+0  18404-3 0  9994
2 31573  51.9938 137.8783 0000385 136.0582   6.3391 12.42142072821596
GLOBALSTAR M072         
1 31574U 07020D   25066.77486209 -.00000093  00000+0 -11936-3 0  9997
2 31574  52.0136 261.9357 0001973 118.5120 325.9441 11.91776884819378
GLOBALSTAR M071         
1 31576U 07020F   25066.56458433 -.00000003  00000+0  86838-3 0  9997
2 31576  52.0055 155.5883 0000622 200.3837 264.4500 12.18249808821464
